CCSDS_OMM_VERS = 2.0
CREATION_DATE  = 
ORIGINATOR     = 

OBJECT_NAME    = 1998-067XK
OBJECT_ID      = 1998-067XK
CENTER_NAME    = EARTH
REF_FRAME      = TEME
TIME_SYSTEM    = UTC
MEAN_ELEMENT_THEORY = SGP/SGP4

EPOCH          = 2026-01-29T23:51:22.690368
MEAN_MOTION    = 15.79790369
ECCENTRICITY   = .0003929
INCLINATION    = 51.6242
RA_OF_ASC_NODE = 250.2341
ARG_OF_PERICENTER = 181.0635
MEAN_ANOMALY   = 179.0358

EPHEMERIS_TYPE = 0
CLASSIFICATION_TYPE = U
NORAD_CAT_ID   = 65731
ELEMENT_SET_NO = 999
REV_AT_EPOCH   = 2073
BSTAR          = .11816E-2
MEAN_MOTION_DOT = .227675E-2
MEAN_MOTION_DDOT = 0

CCSDS_OMM_VERS = 2.0
CREATION_DATE  = 
ORIGINATOR     = 

OBJECT_NAME    = RSP-03
OBJECT_ID      = 1998-067XL
CENTER_NAME    = EARTH
REF_FRAME      = TEME
TIME_SYSTEM    = UTC
MEAN_ELEMENT_THEORY = SGP/SGP4

EPOCH          = 2026-01-30T00:27:29.249856
MEAN_MOTION    = 15.90730226
ECCENTRICITY   = .0005454
INCLINATION    = 51.6193
RA_OF_ASC_NODE = 247.3484
ARG_OF_PERICENTER = 204.6717
MEAN_ANOMALY   = 155.4029

EPHEMERIS_TYPE = 0
CLASSIFICATION_TYPE = U
NORAD_CAT_ID   = 65732
ELEMENT_SET_NO = 999
REV_AT_EPOCH   = 2078
BSTAR          = .14273E-2
MEAN_MOTION_DOT = .452268E-2
MEAN_MOTION_DDOT = .88678E-4

CCSDS_OMM_VERS = 2.0
CREATION_DATE  = 
ORIGINATOR     = 

OBJECT_NAME    = YOTSUBA-KULOVER
OBJECT_ID      = 1998-067XN
CENTER_NAME    = EARTH
REF_FRAME      = TEME
TIME_SYSTEM    = UTC
MEAN_ELEMENT_THEORY = SGP/SGP4

EPOCH          = 2026-01-28T21:19:46.886304
MEAN_MOTION    = 15.68173608
ECCENTRICITY   = .00044402
INCLINATION    = 51.6262
RA_OF_ASC_NODE = 261.6316
ARG_OF_PERICENTER = 181.9038
MEAN_ANOMALY   = 178.1942

EPHEMERIS_TYPE = 0
CLASSIFICATION_TYPE = U
NORAD_CAT_ID   = 65941
ELEMENT_SET_NO = 999
REV_AT_EPOCH   = 1723
BSTAR          = .11517768E-2
MEAN_MOTION_DOT = .132779E-2
MEAN_MOTION_DDOT = 0

CCSDS_OMM_VERS = 2.0
CREATION_DATE  = 
ORIGINATOR     = 

OBJECT_NAME    = BOTAN
OBJECT_ID      = 1998-067XP
CENTER_NAME    = EARTH
REF_FRAME      = TEME
TIME_SYSTEM    = UTC
MEAN_ELEMENT_THEORY = SGP/SGP4

EPOCH          = 2026-01-28T21:45:13.252896
MEAN_MOTION    = 15.78139785
ECCENTRICITY   = .00054728
INCLINATION    = 51.6209
RA_OF_ASC_NODE = 258.7225
ARG_OF_PERICENTER = 195.0902
MEAN_ANOMALY   = 164.9936

EPHEMERIS_TYPE = 0
CLASSIFICATION_TYPE = U
NORAD_CAT_ID   = 65942
ELEMENT_SET_NO = 999
REV_AT_EPOCH   = 1727
BSTAR          = .16092433E-2
MEAN_MOTION_DOT = .290204E-2
MEAN_MOTION_DDOT = 0

CCSDS_OMM_VERS = 2.0
CREATION_DATE  = 
ORIGINATOR     = 

OBJECT_NAME    = E-KAGAKU-1
OBJECT_ID      = 1998-067XQ
CENTER_NAME    = EARTH
REF_FRAME      = TEME
TIME_SYSTEM    = UTC
MEAN_ELEMENT_THEORY = SGP/SGP4

EPOCH          = 2026-01-28T21:20:07.289664
MEAN_MOTION    = 15.68112897
ECCENTRICITY   = .00032624
INCLINATION    = 51.6278
RA_OF_ASC_NODE = 261.6423
ARG_OF_PERICENTER = 190.6835
MEAN_ANOMALY   = 169.4092

EPHEMERIS_TYPE = 0
CLASSIFICATION_TYPE = U
NORAD_CAT_ID   = 65943
ELEMENT_SET_NO = 999
REV_AT_EPOCH   = 1723
BSTAR          = .11486731E-2
MEAN_MOTION_DOT = .132052E-2
MEAN_MOTION_DDOT = 0

CCSDS_OMM_VERS = 2.0
CREATION_DATE  = 
ORIGINATOR     = 

OBJECT_NAME    = HRC MONOBLOCK CAMERA
OBJECT_ID      = 1998-067XR
CENTER_NAME    = EARTH
REF_FRAME      = TEME
TIME_SYSTEM    = UTC
MEAN_ELEMENT_THEORY = SGP/SGP4

EPOCH          = 2026-01-30T00:17:06.344736
MEAN_MOTION    = 15.58259127
ECCENTRICITY   = .0000297
INCLINATION    = 51.6287
RA_OF_ASC_NODE = 260.1380
ARG_OF_PERICENTER = 44.3397
MEAN_ANOMALY   = 315.7619

EPHEMERIS_TYPE = 0
CLASSIFICATION_TYPE = U
NORAD_CAT_ID   = 66052
ELEMENT_SET_NO = 999
REV_AT_EPOCH   = 1635
BSTAR          = .65514E-3
MEAN_MOTION_DOT = .50362E-3
MEAN_MOTION_DDOT = 0

CCSDS_OMM_VERS = 2.0
CREATION_DATE  = 
ORIGINATOR     = 

OBJECT_NAME    = HTV-X1
OBJECT_ID      = 2025-241A
CENTER_NAME    = EARTH
REF_FRAME      = TEME
TIME_SYSTEM    = UTC
MEAN_ELEMENT_THEORY = SGP/SGP4

EPOCH          = 2026-01-28T21:15:55.109664
MEAN_MOTION    = 15.48254051
ECCENTRICITY   = .0011179
INCLINATION    = 51.6319
RA_OF_ASC_NODE = 269.1180
ARG_OF_PERICENTER = 40.2849
MEAN_ANOMALY   = 319.8966

EPHEMERIS_TYPE = 0
CLASSIFICATION_TYPE = U
NORAD_CAT_ID   = 66174
ELEMENT_SET_NO = 999
REV_AT_EPOCH   = 51
BSTAR          = .21299538E-3
MEAN_MOTION_DOT = .11021E-3
MEAN_MOTION_DDOT = 0

CCSDS_OMM_VERS = 2.0
CREATION_DATE  = 
ORIGINATOR     = 

OBJECT_NAME    = SZ-21 MODULE
OBJECT_ID      = 2025-246C
CENTER_NAME    = EARTH
REF_FRAME      = TEME
TIME_SYSTEM    = UTC
MEAN_ELEMENT_THEORY = SGP/SGP4

EPOCH          = 2026-01-30T03:13:26.086944
MEAN_MOTION    = 15.65656752
ECCENTRICITY   = .0003469
INCLINATION    = 41.4760
RA_OF_ASC_NODE = 80.1708
ARG_OF_PERICENTER = 256.2180
MEAN_ANOMALY   = 103.8275

EPHEMERIS_TYPE = 0
CLASSIFICATION_TYPE = U
NORAD_CAT_ID   = 66515
ELEMENT_SET_NO = 999
REV_AT_EPOCH   = 1202
BSTAR          = .38274E-3
MEAN_MOTION_DOT = .39582E-3
MEAN_MOTION_DDOT = 0

CCSDS_OMM_VERS = 2.0
CREATION_DATE  = 
ORIGINATOR     = 

OBJECT_NAME    = SHENZHOU-22
OBJECT_ID      = 2025-272A
CENTER_NAME    = EARTH
REF_FRAME      = TEME
TIME_SYSTEM    = UTC
MEAN_ELEMENT_THEORY = SGP/SGP4

EPOCH          = 2026-01-28T13:43:40.256544
MEAN_MOTION    = 15.61237451
ECCENTRICITY   = .0009404
INCLINATION    = 41.4673
RA_OF_ASC_NODE = 91.9689
ARG_OF_PERICENTER = 23.4558
MEAN_ANOMALY   = 336.6709

EPHEMERIS_TYPE = 0
CLASSIFICATION_TYPE = U
NORAD_CAT_ID   = 66645
ELEMENT_SET_NO = 999
REV_AT_EPOCH   = 26764
BSTAR          = .32261599E-3
MEAN_MOTION_DOT = .27953E-3
MEAN_MOTION_DDOT = 0

CCSDS_OMM_VERS = 2.0
CREATION_DATE  = 
ORIGINATOR     = 

OBJECT_NAME    = SOYUZ-MS 28
OBJECT_ID      = 2025-275A
CENTER_NAME    = EARTH
REF_FRAME      = TEME
TIME_SYSTEM    = UTC
MEAN_ELEMENT_THEORY = SGP/SGP4

EPOCH          = 2026-01-30T01:08:56.776704
MEAN_MOTION    = 15.48277515
ECCENTRICITY   = .0011104
INCLINATION    = 51.6322
RA_OF_ASC_NODE = 263.3755
ARG_OF_PERICENTER = 44.3027
MEAN_ANOMALY   = 315.8848

EPHEMERIS_TYPE = 0
CLASSIFICATION_TYPE = U
NORAD_CAT_ID   = 66664
ELEMENT_SET_NO = 999
REV_AT_EPOCH   = 55034
BSTAR          = .1862E-3
MEAN_MOTION_DOT = .9583E-4
MEAN_MOTION_DDOT = 0

CCSDS_OMM_VERS = 2.0
CREATION_DATE  = 
ORIGINATOR     = 

OBJECT_NAME    = DUPLEX
OBJECT_ID      = 1998-067XS
CENTER_NAME    = EARTH
REF_FRAME      = TEME
TIME_SYSTEM    = UTC
MEAN_ELEMENT_THEORY = SGP/SGP4

EPOCH          = 2026-01-29T23:00:08.223264
MEAN_MOTION    = 15.53508378
ECCENTRICITY   = .0001588
INCLINATION    = 51.6306
RA_OF_ASC_NODE = 262.7795
ARG_OF_PERICENTER = 77.7808
MEAN_ANOMALY   = 282.3361

EPHEMERIS_TYPE = 0
CLASSIFICATION_TYPE = U
NORAD_CAT_ID   = 66906
ELEMENT_SET_NO = 999
REV_AT_EPOCH   = 910
BSTAR          = .56511E-3
MEAN_MOTION_DOT = .36265E-3
MEAN_MOTION_DDOT = 0

CCSDS_OMM_VERS = 2.0
CREATION_DATE  = 
ORIGINATOR     = 

OBJECT_NAME    = 1998-067XT
OBJECT_ID      = 1998-067XT
CENTER_NAME    = EARTH
REF_FRAME      = TEME
TIME_SYSTEM    = UTC
MEAN_ELEMENT_THEORY = SGP/SGP4

EPOCH          = 2026-01-30T01:15:32.786784
MEAN_MOTION    = 15.59567514
ECCENTRICITY   = .0003
INCLINATION    = 51.6279
RA_OF_ASC_NODE = 261.1573
ARG_OF_PERICENTER = 153.2105
MEAN_ANOMALY   = 206.9043

EPHEMERIS_TYPE = 0
CLASSIFICATION_TYPE = U
NORAD_CAT_ID   = 66907
ELEMENT_SET_NO = 999
REV_AT_EPOCH   = 913
BSTAR          = .13574E-2
MEAN_MOTION_DOT = .111088E-2
MEAN_MOTION_DDOT = 0

